STARLINK-1534_new
1 16030C 20055D   21326.15572618  .00000949  00000-0  63577-4 0  3262
2 16030  53.0530 328.0425 0001770  60.5508 341.7534 15.06394676    19
STARLINK-1534_old
1 26030C 20055D   21325.17499867 -.00020834  00000-0 -13957-2 0  3258
2 26030  53.0525 332.4456 0001616  60.0119  60.8063 15.06424298    18
